start=new Date('2021-09-19T00:00:00.000Z').valueOf();
sats=[{"APOAPSIS":"547.993","MEAN_MOTION":"15.06385319","GP_ID":"184951986","CENTER_NAME":"EARTH","MEAN_MOTION_DOT":"0.00036556","SEMIMAJOR_AXIS":"6925.394","REV_AT_EPOCH":"1935","CLASSIFICATION_TYPE":"U","DECAY_DATE":null,"EPHEMERIS_TYPE":"0","TLE_LINE2":"2 48585  53.0526 271.4167 0001060  86.7283  90.3702 15.06385319 19352","PERIOD":"95.593","TIME_SYSTEM":"UTC","RA_OF_ASC_NODE":"271.4167","TLE_LINE1":"1 48585U 21041AJ  21261.91667824  .00036556  00000-0  24613-2 0  9996","MEAN_ELEMENT_THEORY":"SGP4","MEAN_ANOMALY":"90.3702","INCLINATION":"53.0526","COUNTRY_CODE":"US","LAUNCH_DATE":"2021-05-15","RCS_SIZE":"LARGE","REF_FRAME":"TEME","OBJECT_NAME":"STARLINK-2240","ECCENTRICITY":"0.00010600","ELEMENT_SET_NO":"999","MEAN_MOTION_DDOT":"0.0000000000000","ARG_OF_PERICENTER":"86.7283","BSTAR":"0.00246130000000","OBJECT_ID":"2021-041AJ","EPOCH":"2021-09-18T22:00:00.999936","SITE":"AFETR","PERIAPSIS":"546.524","FILE":"3118741","NORAD_CAT_ID":"48585","OBJECT_TYPE":"PAYLOAD"},{"OBJECT_TYPE":"PAYLOAD","NORAD_CAT_ID":"48586","FILE":"3118743","PERIAPSIS":"546.791","EPOCH":"2021-09-18T22:00:00.999936","SITE":"AFETR","OBJECT_ID":"2021-041AK","ARG_OF_PERICENTER":"75.6550","MEAN_MOTION_DDOT":"0.0000000000000","BSTAR":"0.00250910000000","ELEMENT_SET_NO":"999","ECCENTRICITY":"0.00007460","OBJECT_NAME":"STARLINK-2241","RCS_SIZE":"LARGE","REF_FRAME":"TEME","LAUNCH_DATE":"2021-05-15","COUNTRY_CODE":"US","INCLINATION":"53.0524","MEAN_ANOMALY":"141.4023","MEAN_ELEMENT_THEORY":"SGP4","TLE_LINE1":"1 48586U 21041AK  21261.91667824  .00037258  00000-0  25091-2 0  9998","RA_OF_ASC_NODE":"271.4170","TIME_SYSTEM":"UTC","PERIOD":"95.594","TLE_LINE2":"2 48586  53.0524 271.4170 0000746  75.6550 141.4023 15.06369187 19358","EPHEMERIS_TYPE":"0","DECAY_DATE":null,"CLASSIFICATION_TYPE":"U","SEMIMAJOR_AXIS":"6925.443","REV_AT_EPOCH":"1935","MEAN_MOTION_DOT":"0.00037258","CENTER_NAME":"EARTH","GP_ID":"184951531","MEAN_MOTION":"15.06369187","APOAPSIS":"547.825"},{"ECCENTRICITY":"0.00008800","OBJECT_NAME":"STARLINK-2242","BSTAR":"0.00069055000000","MEAN_MOTION_DDOT":"0.0000000000000","ARG_OF_PERICENTER":"65.1499","ELEMENT_SET_NO":"999","PERIAPSIS":"546.611","EPOCH":"2021-09-18T22:00:00.999936","SITE":"AFETR","OBJECT_ID":"2021-041AL","OBJECT_TYPE":"PAYLOAD","FILE":"3118743","NORAD_CAT_ID":"48587","INCLINATION":"53.0515","LAUNCH_DATE":"2021-05-15","COUNTRY_CODE":"US","RCS_SIZE":"LARGE","REF_FRAME":"TEME","RA_OF_ASC_NODE":"271.4097","TIME_SYSTEM":"UTC","PERIOD":"95.592","TLE_LINE1":"1 48587U 21041AL  21261.91667824  .00010019  00000-0  69055-3 0  9994","MEAN_ANOMALY":"117.1057","MEAN_ELEMENT_THEORY":"SGP4","CENTER_NAME":"EARTH","GP_ID":"184952033","MEAN_MOTION":"15.06397801","APOAPSIS":"547.830","SEMIMAJOR_AXIS":"6925.355","REV_AT_EPOCH":"1935","MEAN_MOTION_DOT":"0.00010019","CLASSIFICATION_TYPE":"U","DECAY_DATE":null,"TLE_LINE2":"2 48587  53.0515 271.4097 0000880  65.1499 117.1057 15.06397801 19353","EPHEMERIS_TYPE":"0"},{"TIME_SYSTEM":"UTC","PERIOD":"95.592","RA_OF_ASC_NODE":"262.2828","MEAN_ANOMALY":"305.6737","MEAN_ELEMENT_THEORY":"SGP4","TLE_LINE1":"1 48588U 21041AM  21261.72649243  .00000532  00000-0  54576-4 0  9991","MEAN_MOTION_DOT":"0.00000532","SEMIMAJOR_AXIS":"6925.356","REV_AT_EPOCH":"1907","MEAN_MOTION":"15.06397631","APOAPSIS":"547.594","CENTER_NAME":"EARTH","GP_ID":"184975679","EPHEMERIS_TYPE":"0","TLE_LINE2":"2 48588  53.0555 262.2828 0000539  54.4302 305.6737 15.06397631 19072","DECAY_DATE":null,"CLASSIFICATION_TYPE":"U","ELEMENT_SET_NO":"999","MEAN_MOTION_DDOT":"0.0000000000000","BSTAR":"0.00005457600000","ARG_OF_PERICENTER":"54.4302","OBJECT_NAME":"STARLINK-2244","ECCENTRICITY":"0.00005390","FILE":"3118781","NORAD_CAT_ID":"48588","OBJECT_TYPE":"PAYLOAD","OBJECT_ID":"2021-041AM","PERIAPSIS":"546.848","EPOCH":"2021-09-18T17:26:08.945952","SITE":"AFETR","INCLINATION":"53.0555","REF_FRAME":"TEME","RCS_SIZE":"LARGE","LAUNCH_DATE":"2021-05-15","COUNTRY_CODE":"US"},{"GP_ID":"184975194","CENTER_NAME":"EARTH","APOAPSIS":"547.501","MEAN_MOTION":"15.06391526","SEMIMAJOR_AXIS":"6925.375","REV_AT_EPOCH":"1907","MEAN_MOTION_DOT":"0.00000820","CLASSIFICATION_TYPE":"U","DECAY_DATE":null,"EPHEMERIS_TYPE":"0","TLE_LINE2":"2 48589  53.0539 262.2961 0000377 355.9530   4.1455 15.06391526 19070","RA_OF_ASC_NODE":"262.2961","PERIOD":"95.593","TIME_SYSTEM":"UTC","TLE_LINE1":"1 48589U 21041AN  21261.72280619  .00000820  00000-0  73952-4 0  9999","MEAN_ELEMENT_THEORY":"SGP4","MEAN_ANOMALY":"4.1455","INCLINATION":"53.0539","COUNTRY_CODE":"US","LAUNCH_DATE":"2021-05-15","REF_FRAME":"TEME","RCS_SIZE":"LARGE","ECCENTRICITY":"0.00003770","OBJECT_NAME":"STARLINK-2245","MEAN_MOTION_DDOT":"0.0000000000000","BSTAR":"0.00007395200000","ARG_OF_PERICENTER":"355.9530","ELEMENT_SET_NO":"999","SITE":"AFETR","EPOCH":"2021-09-18T17:20:50.454816","PERIAPSIS":"546.978","OBJECT_ID":"2021-041AN","OBJECT_TYPE":"PAYLOAD","NORAD_CAT_ID":"48589","FILE":"3118781"},{"PERIAPSIS":"546.839","EPOCH":"2021-09-18T22:00:00.999936","SITE":"AFETR","OBJECT_ID":"2021-041AP","OBJECT_TYPE":"PAYLOAD","NORAD_CAT_ID":"48590","FILE":"3118781","ECCENTRICITY":"0.00006090","OBJECT_NAME":"STARLINK-2246","ARG_OF_PERICENTER":"58.0574","MEAN_MOTION_DDOT":"0.0000000000000","BSTAR":"0.00246140000000","ELEMENT_SET_NO":"999","LAUNCH_DATE":"2021-05-15","COUNTRY_CODE":"US","RCS_SIZE":"LARGE","REF_FRAME":"TEME","INCLINATION":"53.0525","TLE_LINE1":"1 48590U 21041AP  21261.91667824  .00036557  00000-0  24614-2 0  9994","MEAN_ANOMALY":"139.0461","MEAN_ELEMENT_THEORY":"SGP4","RA_OF_ASC_NODE":"271.4143","TIME_SYSTEM":"UTC","PERIOD":"95.593","DECAY_DATE":null,"CLASSIFICATION_TYPE":"U","TLE_LINE2":"2 48590  53.0525 271.4143 0000609  58.0574 139.0461 15.06384744  3564","EPHEMERIS_TYPE":"0","CENTER_NAME":"EARTH","GP_ID":"184974999","MEAN_MOTION":"15.06384744","APOAPSIS":"547.682","SEMIMAJOR_AXIS":"6925.395","REV_AT_EPOCH":"356","MEAN_MOTION_DOT":"0.00036557"},{"INCLINATION":"53.0548","REF_FRAME":"TEME","RCS_SIZE":"LARGE","COUNTRY_CODE":"US","LAUNCH_DATE":"2021-05-15","MEAN_MOTION_DDOT":"0.0000000000000","BSTAR":"0.00006640400000","ARG_OF_PERICENTER":"6.1874","ELEMENT_SET_NO":"999","ECCENTRICITY":"0.00005090","OBJECT_NAME":"STARLINK-2248","OBJECT_TYPE":"PAYLOAD","NORAD_CAT_ID":"48591","FILE":"3118781","EPOCH":"2021-09-18T17:10:12.695808","SITE":"AFETR","PERIAPSIS":"546.851","OBJECT_ID":"2021-041AQ","SEMIMAJOR_AXIS":"6925.339","REV_AT_EPOCH":"1997","MEAN_MOTION_DOT":"0.00000708","GP_ID":"184975097","CENTER_NAME":"EARTH","APOAPSIS":"547.556","MEAN_MOTION":"15.06403274","EPHEMERIS_TYPE":"0","TLE_LINE2":"2 48591  53.0548 262.3268 0000509   6.1874 353.9121 15.06403274 19975","DECAY_DATE":null,"CLASSIFICATION_TYPE":"U","RA_OF_ASC_NODE":"262.3268","PERIOD":"95.592","TIME_SYSTEM":"UTC","MEAN_ELEMENT_THEORY":"SGP4","MEAN_ANOMALY":"353.9121","TLE_LINE1":"1 48591U 21041AQ  21261.71542472  .00000708  00000-0  66404-4 0  9998"},{"ELEMENT_SET_NO":"999","BSTAR":"0.00005715500000","MEAN_MOTION_DDOT":"0.0000000000000","ARG_OF_PERICENTER":"77.6642","OBJECT_NAME":"STARLINK-2249","ECCENTRICITY":"0.00004590","FILE":"3118594","NORAD_CAT_ID":"48592","OBJECT_TYPE":"PAYLOAD","OBJECT_ID":"2021-041AR","PERIAPSIS":"546.921","EPOCH":"2021-09-18T10:46:44.952960","SITE":"AFETR","INCLINATION":"53.0554","RCS_SIZE":"MEDIUM","REF_FRAME":"TEME","LAUNCH_DATE":"2021-05-15","COUNTRY_CODE":"US","TIME_SYSTEM":"UTC","PERIOD":"95.593","RA_OF_ASC_NODE":"273.5174","MEAN_ANOMALY":"282.4399","MEAN_ELEMENT_THEORY":"SGP4","TLE_LINE1":"1 48592U 21041AR  21261.44913140  .00000570  00000-0  57155-4 0  9993","MEAN_MOTION_DOT":"0.00000570","SEMIMAJOR_AXIS":"6925.374","REV_AT_EPOCH":"1889","MEAN_MOTION":"15.06391813","APOAPSIS":"547.557","GP_ID":"184948205","CENTER_NAME":"EARTH","EPHEMERIS_TYPE":"0","TLE_LINE2":"2 48592  53.0554 273.5174 0000459  77.6642 282.4399 15.06391813 18891","CLASSIFICATION_TYPE":"U","DECAY_DATE":null},{"RCS_SIZE":"LARGE","REF_FRAME":"TEME","COUNTRY_CODE":"US","LAUNCH_DATE":"2021-05-15","INCLINATION":"53.0547","OBJECT_TYPE":"PAYLOAD","FILE":"3118781","NORAD_CAT_ID":"48593","EPOCH":"2021-09-18T17:19:30.018144","SITE":"AFETR","PERIAPSIS":"546.914","OBJECT_ID":"2021-041AS","MEAN_MOTION_DDOT":"0.0000000000000","BSTAR":"0.00006403100000","ARG_OF_PERICENTER":"40.9258","ELEMENT_SET_NO":"999","ECCENTRICITY":"0.00004140","OBJECT_NAME":"STARLINK-2250","TLE_LINE2":"2 48593  53.0547 272.2890 0000414  40.9258 319.1762 15.06404212 18937","EPHEMERIS_TYPE":"0","DECAY_DATE":null,"CLASSIFICATION_TYPE":"U","SEMIMAJOR_AXIS":"6925.336","REV_AT_EPOCH":"1893","MEAN_MOTION_DOT":"0.00000673","GP_ID":"184975508","CENTER_NAME":"EARTH","APOAPSIS":"547.487","MEAN_MOTION":"15.06404212","MEAN_ELEMENT_THEORY":"SGP4","MEAN_ANOMALY":"319.1762","TLE_LINE1":"1 48593U 21041AS  21261.72187521  .00000673  00000-0  64031-4 0  9996","RA_OF_ASC_NODE":"272.2890","PERIOD":"95.592","TIME_SYSTEM":"UTC"},{"OBJECT_ID":"2021-041AT","PERIAPSIS":"493.752","SITE":"AFETR","EPOCH":"2021-09-18T22:00:00.999936","NORAD_CAT_ID":"48594","FILE":"3118781","OBJECT_TYPE":"PAYLOAD","OBJECT_NAME":"STARLINK-2251","ECCENTRICITY":"0.00016080","ELEMENT_SET_NO":"999","BSTAR":"-0.04568400000000","MEAN_MOTION_DDOT":"0.0000000000000","ARG_OF_PERICENTER":"40.8290","LAUNCH_DATE":"2021-05-15","COUNTRY_CODE":"US","RCS_SIZE":"LARGE","REF_FRAME":"TEME","INCLINATION":"53.0560","TLE_LINE1":"1 48594U 21041AT  21261.91667824 -.01019842  00000-0 -45684-1 0  9998","MEAN_ANOMALY":"309.4318","MEAN_ELEMENT_THEORY":"SGP4","TIME_SYSTEM":"UTC","PERIOD":"94.510","RA_OF_ASC_NODE":"241.8455","CLASSIFICATION_TYPE":"U","DECAY_DATE":null,"TLE_LINE2":"2 48594  53.0560 241.8455 0001608  40.8290 309.4318 15.23645762  3617","EPHEMERIS_TYPE":"0","MEAN_MOTION":"15.23645762","APOAPSIS":"495.962","CENTER_NAME":"EARTH","GP_ID":"184975314","MEAN_MOTION_DOT":"-0.01019842","SEMIMAJOR_AXIS":"6872.992","REV_AT_EPOCH":"361"}];
